OBJECT_NAME,OBJECT_ID,EPOCH,MEAN_MOTION,ECCENTRICITY,INCLINATION,RA_OF_ASC_NODE,ARG_OF_PERICENTER,MEAN_ANOMALY,EPHEMERIS_TYPE,CLASSIFICATION_TYPE,NORAD_CAT_ID,ELEMENT_SET_NO,REV_AT_EPOCH,BSTAR,MEAN_MOTION_DOT,MEAN_MOTION_DDOT
SNIPE 4,2023-072B,2026-07-16T03:20:42.673920,15.43416535,.0004855,97.5222,44.0825,201.4190,158.6855,0,U,56744,999,17457,.27036E-3,.12E-3,0
SNIPE 2,2023-072C,2026-07-16T03:49:27.274944,15.48259382,.0003304,97.5212,47.3550,229.5792,130.5170,0,U,56745,999,17472,.31439E-3,.16497E-3,0
2023-072G,2023-072G,2026-07-16T05:13:19.070112,15.52168433,.0002521,97.4869,46.2545,200.2869,159.8283,0,U,56749,999,17496,.29124E-3,.17542E-3,0
GEISAT PRECURSOR,2023-084C,2026-07-16T05:32:13.858080,15.35018840,.0004542,97.6260,339.1530,225.7387,134.3484,0,U,56934,999,17198,.12673E-3,.422E-4,0
BLACKJACK ACES-3,2023-084U,2026-07-16T02:18:58.457088,15.18792241,.0000794,97.6246,332.5169,221.6882,138.4292,0,U,56950,999,17155,.88801E-4,.1776E-4,0
BLACKJACK ACES-2,2023-084Z,2026-07-16T04:02:27.822912,15.18741900,.0001668,97.6246,332.6732,137.6249,222.5114,0,U,56955,999,17157,.15295E-3,.3106E-4,0
BLACKJACK ACES-1,2023-084AA,2026-07-15T22:59:48.371136,15.18788900,.000193,97.6236,332.2328,119.3997,240.7430,0,U,56956,999,12126,.16031E-3,.3263E-4,0
ION SCV-011,2023-084AB,2026-07-16T02:57:58.994208,15.29101711,.000593,98.1377,27.0897,302.0928,57.9734,0,U,56957,999,17023,.98147E-4,.2684E-4,0
GHOST-3,2023-084AC,2026-07-15T23:41:17.384928,15.48806129,.0006835,97.6246,347.1285,182.2257,177.8963,0,U,56958,999,17247,.21273E-3,.11345E-3,0
AFR-1,2023-084AJ,2026-07-16T03:57:17.904384,15.28780912,.0009319,97.6311,334.5634,231.0819,128.9590,0,U,56964,999,17165,.85988E-4,.2328E-4,0
METEOR-M2 3,2023-091A,2026-07-16T04:29:19.844736,14.24048994,.000514,98.6068,251.5696,88.0651,272.1116,0,U,57166,999,15864,.13151E-4,-.13E-6,0
UMKA 1 (RS40S),2023-091G,2026-07-16T04:08:34.878624,15.21126943,.0012958,97.5034,255.7617,26.3119,333.8771,0,U,57172,999,16841,.13904E-3,.303E-4,0
2023-091H,2023-091H,2026-07-16T04:13:03.940320,15.29227487,.0009476,97.5032,260.6120,21.9309,338.2334,0,U,57173,999,16873,.20912E-3,.586E-4,0
2023-091J,2023-091J,2026-07-16T04:51:19.533888,15.14115162,.001434,97.5041,249.8856,52.9546,307.2995,0,U,57174,999,16802,.10604E-3,.1869E-4,0
CUBEBEL 2 (EU11S),2023-091K,2026-07-16T03:58:52.563360,15.29836881,.0009438,97.5034,260.6532,23.2028,336.9636,0,U,57175,999,16873,.22542E-3,.6443E-4,0
SITRO-AIS 5 (KATYS),2023-091L,2026-07-16T04:15:58.287744,15.30076618,.0010548,97.5044,261.3633,9.0325,351.1103,0,U,57176,999,16877,.20799E-3,.5985E-4,0
ZORKIY-2M 1,2023-091M,2026-07-16T03:46:00.958656,15.21256905,.0013319,97.5074,256.0345,23.1021,337.0811,0,U,57177,999,16840,.15859E-3,.3479E-4,0
CUBESX-HSE 3 (RS42S),2023-091N,2026-07-16T04:22:25.459968,15.31898058,.0009563,97.5076,263.1477,358.4487,1.6723,0,U,57178,999,16886,.22132E-3,.6745E-4,0
MONITOR-3 (RS58S),2023-091Q,2026-07-16T03:23:12.106176,15.28383529,.0010899,97.5068,260.8083,6.4418,353.6959,0,U,57180,999,16871,.20652E-3,.5639E-4,0
MONITOR-4 (RS57S),2023-091S,2026-07-16T04:24:59.525856,15.28469991,.001087,97.5062,260.8243,6.6032,353.5348,0,U,57182,999,16872,.19639E-3,.5373E-4,0
MONITOR-2 (RS39S),2023-091U,2026-07-16T03:57:34.894944,15.19158998,.0011297,97.5055,255.2626,20.8193,339.3499,0,U,57184,999,16835,.12017E-3,.246E-4,0
SVYATOBOR 1 (RS60S),2023-091X,2026-07-16T03:46:34.314240,15.27072520,.0008658,97.5075,261.1414,1.0704,359.0552,0,U,57187,999,16873,.18056E-3,.4724E-4,0
HORS 1,2023-091Y,2026-07-16T03:22:40.603008,15.27191789,.0008108,97.5052,260.8834,1.6016,358.5247,0,U,57188,999,16873,.18644E-3,.4897E-4,0
VIZARD-METEO (RS38S),2023-091Z,2026-07-16T04:38:58.151904,15.36892541,.0005568,97.5078,267.2765,335.3257,24.7719,0,U,57189,999,16914,.24768E-3,.8854E-4,0
SITRO-AIS 6 (CHIRKIN),2023-091AC,2026-07-16T03:49:02.654400,15.26447314,.001107,97.5052,260.3074,13.2402,346.9124,0,U,57192,999,16870,.18598E-3,.4779E-4,0
SITRO-AIS 8 (ANOKHIN),2023-091AD,2026-07-16T03:25:54.645312,15.32873152,.0009432,97.5041,263.0375,4.8039,355.3291,0,U,57193,999,16888,.25987E-3,.8181E-4,0
SITRO-AIS 7 (FARTUSHNIY),2023-091AE,2026-07-16T04:02:17.503296,15.26121151,.0011038,97.5048,260.1262,14.4898,345.6654,0,U,57194,999,16869,.18664E-3,.4749E-4,0
AVION KALUGA 650,2023-091AF,2026-07-16T04:25:16.713408,15.20637680,.0010364,97.5073,256.6461,19.2790,340.8835,0,U,57195,999,16843,.13162E-3,.2821E-4,0
HORS 2,2023-091AG,2026-07-16T03:50:08.265696,15.32575736,.0006745,97.5074,264.5964,351.5425,8.5702,0,U,57196,999,16896,.2162E-3,.6724E-4,0
A-SEANSAT-PG1,2023-091AH,2026-07-16T04:03:32.800032,15.37903892,.0005581,97.5067,267.3869,345.4231,14.6851,0,U,57197,999,16916,.25603E-3,.9461E-4,0
