SNIPE 4                 
1 56744U 23072B   26197.13938280  .00012000  00000+0  27036-3 0  9992
2 56744  97.5222  44.0825 0004855 201.4190 158.6855 15.43416535174576
SNIPE 2                 
1 56745U 23072C   26197.15934346  .00016497  00000+0  31439-3 0  9990
2 56745  97.5212  47.3550 0003304 229.5792 130.5170 15.48259382174720
2023-072G               
1 56749U 23072G   26197.21758183  .00017542  00000+0  29124-3 0  9994
2 56749  97.4869  46.2545 0002521 200.2869 159.8283 15.52168433174960
GEISAT PRECURSOR        
1 56934U 23084C   26197.23071595  .00004220  00000+0  12673-3 0  9990
2 56934  97.6260 339.1530 0004542 225.7387 134.3484 15.35018840171980
BLACKJACK ACES-3        
1 56950U 23084U   26197.09650992  .00001776  00000+0  88801-4 0  9996
2 56950  97.6246 332.5169 0000794 221.6882 138.4292 15.18792241171557
BLACKJACK ACES-2        
1 56955U 23084Z   26197.16837758  .00003106  00000+0  15295-3 0  9991
2 56955  97.6246 332.6732 0001668 137.6249 222.5114 15.18741900171579
BLACKJACK ACES-1        
1 56956U 23084AA  26196.95819874  .00003263  00000+0  16031-3 0  9990
2 56956  97.6236 332.2328 0001930 119.3997 240.7430 15.18788900121260
ION SCV-011             
1 56957U 23084AB  26197.12359947  .00002684  00000+0  98147-4 0  9996
2 56957  98.1377  27.0897 0005930 302.0928  57.9734 15.29101711170239
GHOST-3                 
1 56958U 23084AC  26196.98700677  .00011345  00000+0  21273-3 0  9999
2 56958  97.6246 347.1285 0006835 182.2257 177.8963 15.48806129172474
AFR-1                   
1 56964U 23084AJ  26197.16479056  .00002328  00000+0  85988-4 0  9996
2 56964  97.6311 334.5634 0009319 231.0819 128.9590 15.28780912171650
METEOR-M2 3             
1 57166U 23091A   26197.18703524 -.00000013  00000+0  13151-4 0  9994
2 57166  98.6068 251.5696 0005140  88.0651 272.1116 14.24048994158645
UMKA 1 (RS40S)          
1 57172U 23091G   26197.17262591  .00003030  00000+0  13904-3 0  9990
2 57172  97.5034 255.7617 0012958  26.3119 333.8771 15.21126943168418
2023-091H               
1 57173U 23091H   26197.17574005  .00005860  00000+0  20912-3 0  9997
2 57173  97.5032 260.6120 0009476  21.9309 338.2334 15.29227487168736
2023-091J               
1 57174U 23091J   26197.20230942  .00001869  00000+0  10604-3 0  9993
2 57174  97.5041 249.8856 0014340  52.9546 307.2995 15.14115162168026
CUBEBEL 2 (EU11S)       
1 57175U 23091K   26197.16588615  .00006443  00000+0  22542-3 0  9999
2 57175  97.5034 260.6532 0009438  23.2028 336.9636 15.29836881168732
SITRO-AIS 5 (KATYS)     
1 57176U 23091L   26197.17775796  .00005985  00000+0  20799-3 0  9991
2 57176  97.5044 261.3633 0010548   9.0325 351.1103 15.30076618168778
ZORKIY-2M 1             
1 57177U 23091M   26197.15695554  .00003479  00000+0  15859-3 0  9990
2 57177  97.5074 256.0345 0013319  23.1021 337.0811 15.21256905168400
CUBESX-HSE 3 (RS42S)    
1 57178U 23091N   26197.18223912  .00006745  00000+0  22132-3 0  9990
2 57178  97.5076 263.1477 0009563 358.4487   1.6723 15.31898058168862
MONITOR-3 (RS58S)       
1 57180U 23091Q   26197.14111234  .00005639  00000+0  20652-3 0  9998
2 57180  97.5068 260.8083 0010899   6.4418 353.6959 15.28383529168714
MONITOR-4 (RS57S)       
1 57182U 23091S   26197.18402229  .00005373  00000+0  19639-3 0  9999
2 57182  97.5062 260.8243 0010870   6.6032 353.5348 15.28469991168721
MONITOR-2 (RS39S)       
1 57184U 23091U   26197.16498721  .00002460  00000+0  12017-3 0  9998
2 57184  97.5055 255.2626 0011297  20.8193 339.3499 15.19158998168358
SVYATOBOR 1 (RS60S)     
1 57187U 23091X   26197.15734160  .00004724  00000+0  18056-3 0  9994
2 57187  97.5075 261.1414 0008658   1.0704 359.0552 15.27072520168736
HORS 1                  
1 57188U 23091Y   26197.14074772  .00004897  00000+0  18644-3 0  9994
2 57188  97.5052 260.8834 0008108   1.6016 358.5247 15.27191789168730
VIZARD-METEO (RS38S)    
1 57189U 23091Z   26197.19372861  .00008854  00000+0  24768-3 0  9991
2 57189  97.5078 267.2765 0005568 335.3257  24.7719 15.36892541169140
SITRO-AIS 6 (CHIRKIN)   
1 57192U 23091AC  26197.15905850  .00004779  00000+0  18598-3 0  9997
2 57192  97.5052 260.3074 0011070  13.2402 346.9124 15.26447314168705
SITRO-AIS 8 (ANOKHIN)   
1 57193U 23091AD  26197.14299358  .00008181  00000+0  25987-3 0  9997
2 57193  97.5041 263.0375 0009432   4.8039 355.3291 15.32873152168887
SITRO-AIS 7 (FARTUSHNIY)
1 57194U 23091AE  26197.16825814  .00004749  00000+0  18664-3 0  9992
2 57194  97.5048 260.1262 0011038  14.4898 345.6654 15.26121151168695
AVION KALUGA 650        
1 57195U 23091AF  26197.18422122  .00002821  00000+0  13162-3 0  9997
2 57195  97.5073 256.6461 0010364  19.2790 340.8835 15.20637680168433
HORS 2                  
1 57196U 23091AG  26197.15981789  .00006724  00000+0  21620-3 0  9998
2 57196  97.5074 264.5964 0006745 351.5425   8.5702 15.32575736168961
A-SEANSAT-PG1           
1 57197U 23091AH  26197.16912963  .00009461  00000+0  25603-3 0  9994
2 57197  97.5067 267.3869 0005581 345.4231  14.6851 15.37903892169162
